{"type": "FeatureCollection", "features": [ {"type": "Feature", "properties": {"norad_id": 35480, "name": "IRIDIUM 33 DEB", "group": "iridium-33-debris", "lat": -35.43868801214506, "lon": 23.396971739166315, "alt_km": 742.3687317691702, "timestamp": "2025-12-10T05:46:14.211298+00:00", "meta": {"OBJECT_NAME": "IRIDIUM 33 DEB", "OBJECT_ID": "1997-051QA", "EPOCH": "2025-12-09T19:59:43.135296", "MEAN_MOTION": 14.49744631, "ECCENTRICITY": 0.0015927, "INCLINATION": 86.357, "RA_OF_ASC_NODE": 26.1722, "ARG_OF_PERICENTER": 113.2937, "MEAN_ANOMALY": 246.9945, "EPHEMERIS_TYPE": 0, "CLASSIFICATION_TYPE": "U", "NORAD_CAT_ID": 35480, "ELEMENT_SET_NO": 999, "REV_AT_EPOCH": 86989, "BSTAR": 0.00091935, "MEAN_MOTION_DOT": 3.565e-05, "MEAN_MOTION_DDOT": 0}, "tle": {"line1": "1 35480U 97051QA  25343.83313814  .00003565  00000+0  91935-3 0  9998", "line2": "2 35480  86.3570  26.1722 0015927 113.2937 246.9945 14.49744631869893"}}, "geometry": {"type": "Point", "coordinates": [23.396971739166315, -35.43868801214506]}}, {"type": "Feature", "properties": {"norad_id": 35484, "name": "IRIDIUM 33 DEB", "group": "iridium-33-debris", "lat": 51.05248592159181, "lon": -1.569599825674736, "alt_km": 564.9858468275443, "timestamp": "2025-12-10T05:46:14.211312+00:00", "meta": {"OBJECT_NAME": "IRIDIUM 33 DEB", "OBJECT_ID": "1997-051QE", "EPOCH": "2025-12-09T18:19:22.021248", "MEAN_MOTION": 14.98336228, "ECCENTRICITY": 0.0023298, "INCLINATION": 86.3609, "RA_OF_ASC_NODE": 354.1372, "ARG_OF_PERICENTER": 134.8315, "MEAN_ANOMALY": 225.4815, "EPHEMERIS_TYPE": 0, "CLASSIFICATION_TYPE": "U", "NORAD_CAT_ID": 35484, "ELEMENT_SET_NO": 999, "REV_AT_EPOCH": 61971, "BSTAR": 0.0036944, "MEAN_MOTION_DOT": 0.00044475, "MEAN_MOTION_DDOT": 0}, "tle": {"line1": "1 35484U 97051QE  25343.76344932  .00044475  00000+0  36944-2 0  9992", "line2": "2 35484  86.3609 354.1372 0023298 134.8315 225.4815 14.98336228619719"}}, "geometry": {"type": "Point", "coordinates": [-1.569599825674736, 51.05248592159181]}}, {"type": "Feature", "properties": {"norad_id": 35488, "name": "IRIDIUM 33 DEB", "group": "iridium-33-debris", "lat": -59.95527303267675, "lon": -64.35056798826082, "alt_km": 634.636435359279, "timestamp": "2025-12-10T05:46:14.211331+00:00", "meta": {"OBJECT_NAME": "IRIDIUM 33 DEB", "OBJECT_ID": "1997-051QJ", "EPOCH": "2025-12-08T21:39:05.105088", "MEAN_MOTION": 14.8290127, "ECCENTRICITY": 0.0030312, "INCLINATION": 86.3246, "RA_OF_ASC_NODE": 302.6469, "ARG_OF_PERICENTER": 55.0525, "MEAN_ANOMALY": 305.3538, "EPHEMERIS_TYPE": 0, "CLASSIFICATION_TYPE": "U", "NORAD_CAT_ID": 35488, "ELEMENT_SET_NO": 999, "REV_AT_EPOCH": 88209, "BSTAR": 0.0019549, "MEAN_MOTION_DOT": 0.00016018, "MEAN_MOTION_DDOT": 0}, "tle": {"line1": "1 35488U 97051QJ  25342.90214242  .00016018  00000+0  19549-2 0  9995", "line2": "2 35488  86.3246 302.6469 0030312  55.0525 305.3538 14.82901270882098"}}, "geometry": {"type": "Point", "coordinates": [-64.35056798826082, -59.95527303267675]}}, {"type": "Feature", "properties": {"norad_id": 35616, "name": "IRIDIUM 33 DEB", "group": "iridium-33-debris", "lat": 69.13809578479844, "lon": 157.27627367374552, "alt_km": 614.079118031048, "timestamp": "2025-12-10T05:46:14.211350+00:00", "meta": {"OBJECT_NAME": "IRIDIUM 33 DEB", "OBJECT_ID": "1997-051QN", "EPOCH": "2025-12-09T17:55:38.523360", "MEAN_MOTION": 14.81687199, "ECCENTRICITY": 0.0009712, "INCLINATION": 86.355, "RA_OF_ASC_NODE": 347.1304, "ARG_OF_PERICENTER": 173.7748, "MEAN_ANOMALY": 186.3597, "EPHEMERIS_TYPE": 0, "CLASSIFICATION_TYPE": "U", "NORAD_CAT_ID": 35616, "ELEMENT_SET_NO": 999, "REV_AT_EPOCH": 87530, "BSTAR": 0.0025735, "MEAN_MOTION_DOT": 0.00020338, "MEAN_MOTION_DDOT": 0}, "tle": {"line1": "1 35616U 97051QN  25343.74697365  .00020338  00000+0  25735-2 0  9996", "line2": "2 35616  86.3550 347.1304 0009712 173.7748 186.3597 14.81687199875304"}}, "geometry": {"type": "Point", "coordinates": [157.27627367374552, 69.13809578479844]}}, {"type": "Feature", "properties": {"norad_id": 35618, "name": "IRIDIUM 33 DEB", "group": "iridium-33-debris", "lat": 38.18381018081949, "lon": 171.71003982363328, "alt_km": 723.3430206030671, "timestamp": "2025-12-10T05:46:14.211366+00:00", "meta": {"OBJECT_NAME": "IRIDIUM 33 DEB", "OBJECT_ID": "1997-051QQ", "EPOCH": "2025-12-05T07:42:53.148672", "MEAN_MOTION": 14.52258119, "ECCENTRICITY": 0.00302089, "INCLINATION": 86.3407, "RA_OF_ASC_NODE": 356.7447, "ARG_OF_PERICENTER": 46.3254, "MEAN_ANOMALY": 314.0448, "EPHEMERIS_TYPE": 0, "CLASSIFICATION_TYPE": "U", "NORAD_CAT_ID": 35618, "ELEMENT_SET_NO": 999, "REV_AT_EPOCH": 65286, "BSTAR": 0.00091388234, "MEAN_MOTION_DOT": 3.753e-05, "MEAN_MOTION_DDOT": 0}, "tle": {"line1": "1 35618U 97051QQ  25339.32144848  .00003753  00000+0  91388-3 0  9990", "line2": "2 35618  86.3407 356.7447 0030208  46.3254 314.0448 14.52258119652865"}}, "geometry": {"type": "Point", "coordinates": [171.71003982363328, 38.18381018081949]}}, {"type": "Feature", "properties": {"norad_id": 35620, "name": "IRIDIUM 33 DEB", "group": "iridium-33-debris", "lat": -71.59599167976941, "lon": 49.452800642878266, "alt_km": 674.5123364437986, "timestamp": "2025-12-10T05:46:14.211383+00:00", "meta": {"OBJECT_NAME": "IRIDIUM 33 DEB", "OBJECT_ID": "1997-051QS", "EPOCH": "2025-12-09T01:52:11.734176", "MEAN_MOTION": 14.37850667, "ECCENTRICITY": 0.0142612, "INCLINATION": 86.3875, "RA_OF_ASC_NODE": 218.9981, "ARG_OF_PERICENTER": 271.0752, "MEAN_ANOMALY": 87.411, "EPHEMERIS_TYPE": 0, "CLASSIFICATION_TYPE": "U", "NORAD_CAT_ID": 35620, "ELEMENT_SET_NO": 999, "REV_AT_EPOCH": 59913, "BSTAR": 0.0064940669, "MEAN_MOTION_DOT": 0.00022091, "MEAN_MOTION_DDOT": 0}, "tle": {"line1": "1 35620U 97051QS  25343.07791359  .00022091  00000+0  64941-2 0  9995", "line2": "2 35620  86.3875 218.9981 0142612 271.0752  87.4110 14.37850667599138"}}, "geometry": {"type": "Point", "coordinates": [49.452800642878266, -71.59599167976941]}}, {"type": "Feature", "properties": {"norad_id": 35622, "name": "IRIDIUM 33 DEB", "group": "iridium-33-debris", "lat": 78.3996295394192, "lon": 65.97119176983956, "alt_km": 549.7428258874306, "timestamp": "2025-12-10T05:46:14.211400+00:00", "meta": {"OBJECT_NAME": "IRIDIUM 33 DEB", "OBJECT_ID": "1997-051QU", "EPOCH": "2025-12-08T18:19:37.394400", "MEAN_MOTION": 15.03927644, "ECCENTRICITY": 0.00075851, "INCLINATION": 86.2056, "RA_OF_ASC_NODE": 265.5603, "ARG_OF_PERICENTER": 342.656, "MEAN_ANOMALY": 47.239, "EPHEMERIS_TYPE": 0, "CLASSIFICATION_TYPE": "U", "NORAD_CAT_ID": 35622, "ELEMENT_SET_NO": 999, "REV_AT_EPOCH": 87300, "BSTAR": 0.0061817818, "MEAN_MOTION_DOT": 0.00086206, "MEAN_MOTION_DDOT": 0}, "tle": {"line1": "1 35622U 97051QU  25342.76362725  .00086206  00000+0  61818-2 0  9991", "line2": "2 35622  86.2056 265.5603 0007585 342.6560  47.2390 15.03927644873009"}}, "geometry": {"type": "Point", "coordinates": [65.97119176983956, 78.3996295394192]}}, {"type": "Feature", "properties": {"norad_id": 35628, "name": "IRIDIUM 33 DEB", "group": "iridium-33-debris", "lat": -80.56040681602616, "lon": -147.2814394390002, "alt_km": 676.4476107372711, "timestamp": "2025-12-10T05:46:14.211416+00:00", "meta": {"OBJECT_NAME": "IRIDIUM 33 DEB", "OBJECT_ID": "1997-051RA", "EPOCH": "2025-12-08T19:51:11.189376", "MEAN_MOTION": 14.67493768, "ECCENTRICITY": 0.00109309, "INCLINATION": 86.3576, "RA_OF_ASC_NODE": 10.8203, "ARG_OF_PERICENTER": 356.3974, "MEAN_ANOMALY": 3.7159, "EPHEMERIS_TYPE": 0, "CLASSIFICATION_TYPE": "U", "NORAD_CAT_ID": 35628, "ELEMENT_SET_NO": 999, "REV_AT_EPOCH": 86389, "BSTAR": 0.0020097942, "MEAN_MOTION_DOT": 0.00011424, "MEAN_MOTION_DDOT": 0}, "tle": {"line1": "1 35628U 97051RA  25342.82721284  .00011424  00000+0  20098-2 0  9998", "line2": "2 35628  86.3576  10.8203 0010930 356.3974   3.7159 14.67493768863899"}}, "geometry": {"type": "Point", "coordinates": [-147.2814394390002, -80.56040681602616]}}, {"type": "Feature", "properties": {"norad_id": 35631, "name": "IRIDIUM 33 DEB", "group": "iridium-33-debris", "lat": -20.82937282326233, "lon": 20.667342618712638, "alt_km": 750.915151527246, "timestamp": "2025-12-10T05:46:14.211432+00:00", "meta": {"OBJECT_NAME": "IRIDIUM 33 DEB", "OBJECT_ID": "1997-051RD", "EPOCH": "2025-12-09T20:43:35.981760", "MEAN_MOTION": 14.47299747, "ECCENTRICITY": 0.0018823, "INCLINATION": 86.3675, "RA_OF_ASC_NODE": 22.2144, "ARG_OF_PERICENTER": 126.5445, "MEAN_ANOMALY": 50.6772, "EPHEMERIS_TYPE": 0, "CLASSIFICATION_TYPE": "U", "NORAD_CAT_ID": 35631, "ELEMENT_SET_NO": 999, "REV_AT_EPOCH": 87155, "BSTAR": 0.00059485, "MEAN_MOTION_DOT": 2.2e-05, "MEAN_MOTION_DDOT": 0}, "tle": {"line1": "1 35631U 97051RD  25343.86361090  .00002200  00000+0  59485-3 0  9997", "line2": "2 35631  86.3675  22.2144 0018823 126.5445  50.6772 14.47299747871556"}}, "geometry": {"type": "Point", "coordinates": [20.667342618712638, -20.82937282326233]}}, {"type": "Feature", "properties": {"norad_id": 35680, "name": "IRIDIUM 33 DEB", "group": "iridium-33-debris", "lat": -6.011588478146166, "lon": -156.9595524970448, "alt_km": 844.6515339158223, "timestamp": "2025-12-10T05:46:14.211449+00:00", "meta": {"OBJECT_NAME": "IRIDIUM 33 DEB", "OBJECT_ID": "1997-051RJ", "EPOCH": "2025-12-09T21:01:33.153024", "MEAN_MOTION": 14.20836605, "ECCENTRICITY": 0.0150503, "INCLINATION": 86.1036, "RA_OF_ASC_NODE": 22.7904, "ARG_OF_PERICENTER": 287.6789, "MEAN_ANOMALY": 197.3523, "EPHEMERIS_TYPE": 0, "CLASSIFICATION_TYPE": "U", "NORAD_CAT_ID": 35680, "ELEMENT_SET_NO": 999, "REV_AT_EPOCH": 60660, "BSTAR": 0.0057996, "MEAN_MOTION_DOT": 0.0001408, "MEAN_MOTION_DDOT": 0}, "tle": {"line1": "1 35680U 97051RJ  25343.87607816  .00014080  00000+0  57996-2 0  9994", "line2": "2 35680  86.1036  22.7904 0150503 287.6789 197.3523 14.20836605606606"}}, "geometry": {"type": "Point", "coordinates": [-156.9595524970448, -6.011588478146166]}}]}